NUSAT-1 (FRESCO)        
1 41557U 16033B   22054.49520148  .00007881  00000+0  25919-3 0  9993
2 41557  97.3874 152.3019 0013257  66.2315  62.2815 15.31716987319920
BEESAT-4                
1 41619U 16040W   22053.87937318  .00007811  00000+0  28915-3 0  9994
2 41619  97.2352 107.7467 0010762 156.4640 203.7094 15.27877282303218
CAS-2T & KS-1Q          
1 41847U 16066G   22054.40785274  .00000582  00000+0  97470-4 0  9998
2 41847  98.5668 119.1421 0364544 190.7342 168.5913 14.38377447277950
NAYIF-1 (EO-88)         
1 42017U 17008BX  22053.65614109  .00010376  00000+0  35011-3 0  9993
2 42017  97.2842 121.6864 0004213 306.7028  53.3826 15.30874430279495
ZHUHAI-1 02 (CAS-4B)    
1 42759U 17034B   22054.57260626  .00001928  00000+0  12663-3 0  9999
2 42759  43.0168 239.9384 0009554 291.6712 130.0407 15.10942707259120
ZHUHAI-1 01 (CAS-4A)    
1 42761U 17034D   22054.48885661  .00001934  00000+0  12673-3 0  9992
2 42761  43.0164 239.2673 0009824 296.0056 157.6849 15.11027367259114
MAX VALIER SAT          
1 42778U 17036P   22053.69777758  .00004467  00000+0  18122-3 0  9990
2 42778  97.2235  98.8026 0011723  21.2912 338.8811 15.25046987259401
RADFXSAT (FOX-1B)       
1 43017U 17073E   22054.45272879  .00001945  00000+0  15293-3 0  9991
2 43017  97.6882 313.3010 0251352 200.5200 158.5777 14.80424839230249
FOX-1D (AO-92)          
1 43137U 18004AC  22054.42157197  .00005504  00000+0  20996-3 0  9992
2 43137  97.3798 130.7591 0009340  52.6907 307.5182 15.27046895228920
DIWATA-2B               
1 43678U 18084H   22054.57634844  .00000275  00000+0  32945-4 0  9993
2 43678  97.9503 186.6614 0008936 307.6246  52.4177 14.91927718180878
ES'HAIL 2               
1 43700U 18090A   22053.94216093  .00000145  00000+0  00000+0 0  9996
2 43700   0.0274 255.1147 0002413 111.7514 150.9098  1.00271958 12125
FOX-1CLIFF (AO-95)      
1 43770U 18099N   22053.75426328  .00001311  00000+0  12242-3 0  9996
2 43770  97.6356 123.0631 0013085 303.8858  56.1118 14.95804392175861
ITASAT 1                
1 43786U 18099AE  22054.36417802  .00000677  00000+0  65342-4 0  9992
2 43786  97.6378 124.5078 0013697 293.5487  66.4296 14.96035255175995
JY1SAT (JO-97)          
1 43803U 18099AX  22053.74519283  .00002015  00000+0  18264-3 0  9997
2 43803  97.6342 123.6415 0013364 295.0229  64.9605 14.96385175175911
UWE-4                   
1 43880U 18111E   22053.69262283  .00002452  00000+0  21551-3 0  9994
2 43880  97.6768 322.0225 0011805 355.0681   5.0423 14.97427745172528
NEXUS (FO-99)           
1 43937U 19003F   22053.85192562  .00006955  00000+0  25672-3 0  9998
2 43937  97.1471  91.8079 0021414 198.5865 161.4595 15.27844779172460
PSAT2 (NO-104)          
1 44354U 19036R   22053.60356527  .00064365  00000+0  72494-3 0  9997
2 44354  28.5235 246.2300 0277780 129.3071 233.2500 15.26371426147035
BRICSAT2 (NO-103)       
1 44355U 19036S   22054.48003365  .00148820 -83306-6  80054-3 0  9992
2 44355  28.5213 134.2147 0139710 312.2046  46.6774 15.65906756148226
JAISAT-1                
1 44419U 19038F   22054.13760021  .00004650  00000+0  24950-3 0  9993
2 44419  97.6234  23.6179 0020803 162.2749 197.9213 15.15271490145734
DUCHIFAT-3              
1 44854U 19089C   22054.39202279  .00002259  00000+0  18354-3 0  9990
2 44854  36.9664  56.0614 0008253   6.0730 354.0108 15.00176288120795
CAS-6 (TO-108)          
1 44881U 19093C   22054.51439121  .00000368  00000+0  53555-4 0  9999
2 44881  97.9018 135.3351 0014529 191.7820 168.3055 14.81575074117909
RS-44 & BREEZE-KM R/B   
1 44909U 19096E   22053.81014260 -.00000003  00000+0 -50023-4 0  9993
2 44909  82.5223 306.4604 0216509 227.6334 130.6260 12.79712016100840
ORBITAL FACTORY 2 (OF-2)
1 45113U 19071C   22053.81978955  .00014171  00000+0  36138-3 0  9993
2 45113  51.6399 260.8548 0011031 122.8456 237.3592 15.39726849115682
HUSKYSAT-1 (HO-107)     
1 45119U 19071J   22053.78153167  .00014554  00000+0  37469-3 0  9998
2 45119  51.6394 260.5837 0010551 119.3516 240.8523 15.39416118115672
BY70-2                  
1 45857U 20042B   22054.49309027  .00003774  00000+0  52696-3 0  9995
2 45857  97.9643 132.5432 0012247 124.0781 236.1592 14.78208044 88617
SALSAT                  
1 46495U 20068K   22053.81183800  .00000980  00000+0  75530-4 0  9995
2 46495  97.7192 355.2127 0015330 310.2463  49.7421 15.03915361 76959
BY70-3                  
1 46839U 20079N   22054.49858902  .00013021  00000+0  35977-3 0  9996
2 46839  97.2122 128.4464 0007119  35.8195  89.6214 15.37148126 72718
RADFXSAT-2 (AO-109)     
1 47311U 21002C   22054.13259672  .00004491  00000+0  19846-3 0  9997
2 47311  60.6855  71.9009 0020340 183.5636 176.5310 15.23266348 61049
UVSQ-SAT                
1 47438U 21006AB  22054.14262535  .00002872  00000+0  16058-3 0  9997
2 47438  97.4539 115.5355 0011218 316.7663  43.2688 15.14228325 59979
DIY-1 (ARDUIQUBE)       
1 47963U 21022AH  22053.68805561  .00009630  00000+0  59745-3 0  9997
2 47963  97.5418 316.6531 0018562 162.7326 197.4538 15.09781919 49616
XW-3 (CAS-9)            
1 50466U 21131B   22054.51383784  .00000064  00000+0  35459-4 0  9990
2 50466  98.5905 131.7874 0005791 123.4732 236.7010 14.38444294  8532
